[{"OBJECT_NAME":"STARLINK-1559","OBJECT_ID":"2020-055BC","EPOCH":"2026-03-09T05:36:23.522976","MEAN_MOTION":15.29461733,"ECCENTRICITY":0.0004229,"INCLINATION":53.0254,"RA_OF_ASC_NODE":76.0659,"ARG_OF_PERICENTER":33.971,"MEAN_ANOMALY":326.1559,"EPHEMERIS_TYPE":0,"CLASSIFICATION_TYPE":"U","NORAD_CAT_ID":46077,"ELEMENT_SET_NO":999,"REV_AT_EPOCH":30951,"BSTAR":0.0014778793,"MEAN_MOTION_DOT":0.00042685,"MEAN_MOTION_DDOT":0},{"OBJECT_NAME":"STARLINK-34599","OBJECT_ID":"2025-157R","EPOCH":"2026-03-09T22:39:05.286816","MEAN_MOTION":15.30224076,"ECCENTRICITY":0.00011635,"INCLINATION":53.1605,"RA_OF_ASC_NODE":344.4133,"ARG_OF_PERICENTER":65.1303,"MEAN_ANOMALY":294.9818,"EPHEMERIS_TYPE":0,"CLASSIFICATION_TYPE":"U","NORAD_CAT_ID":64919,"ELEMENT_SET_NO":999,"REV_AT_EPOCH":3616,"BSTAR":0.0014769223,"MEAN_MOTION_DOT":0.00043673,"MEAN_MOTION_DDOT":0}]
